{
 "type": "FeatureCollection",
 "name": "C11_gas_line_crossing",
 "features": [
  {
   "type": "Feature",
   "properties": {
    "id": "SRC",
    "object_type": "source"
   },
   "geometry": {
    "type": "Point",
    "coordinates": [
     37.627014883,
     55.6950991163
    ]
   }
  },
  {
   "type": "Feature",
   "properties": {
    "id": "N1",
    "object_type": "heat_network",
    "diameter": 200
   },
   "geometry": {
    "type": "LineString",
    "coordinates": [
     [
      37.627014883,
      55.6950991163
     ],
     [
      37.6365575071,
      55.6952054535
     ]
    ]
   }
  },
  {
   "type": "Feature",
   "properties": {
    "id": "G1",
    "object_type": "restriction",
    "restriction_type": "gas_pipeline"
   },
   "geometry": {
    "type": "LineString",
    "coordinates": [
     [
      37.6270085853,
      55.6952787725
     ],
     [
      37.6365512532,
      55.6953851104
     ]
    ]
   }
  },
  {
   "type": "Feature",
   "properties": {
    "id": "B1",
    "object_type": "restriction",
    "restriction_type": "oks"
   },
   "geometry": {
    "type": "Polygon",
    "coordinates": [
     [
      [
       37.6316120795,
       55.6955817809
      ],
      [
       37.6319301705,
       55.6955853255
      ],
      [
       37.6319238953,
       55.6957649821
      ],
      [
       37.6316058028,
       55.6957614375
      ],
      [
       37.6316120795,
       55.6955817809
      ]
     ]
    ]
   }
  },
  {
   "type": "Feature",
   "properties": {
    "id": "P1",
    "object_type": "oks_connection_point",
    "flow_tph": 20.0
   },
   "geometry": {
    "type": "Point",
    "coordinates": [
     37.6317704974,
     55.695601519
    ]
   }
  }
 ]
}