{
 "type": "FeatureCollection",
 "name": "C17_cross_existing_network",
 "features": [
  {
   "type": "Feature",
   "properties": {
    "id": "SRC",
    "object_type": "source"
   },
   "geometry": {
    "type": "Point",
    "coordinates": [
     37.627014883,
     55.6950991163
    ]
   }
  },
  {
   "type": "Feature",
   "properties": {
    "id": "NB",
    "object_type": "heat_network",
    "diameter": 1000
   },
   "geometry": {
    "type": "LineString",
    "coordinates": [
     [
      37.627014883,
      55.6950991163
     ],
     [
      37.6365575071,
      55.6952054535
     ]
    ]
   }
  },
  {
   "type": "Feature",
   "properties": {
    "id": "NA",
    "object_type": "heat_network",
    "diameter": 100
   },
   "geometry": {
    "type": "LineString",
    "coordinates": [
     [
      37.6270211806,
      55.6949194601
     ],
     [
      37.636563761,
      55.6950257965
     ]
    ]
   }
  },
  {
   "type": "Feature",
   "properties": {
    "id": "P1",
    "object_type": "oks_connection_point",
    "flow_tph": 20.0
   },
   "geometry": {
    "type": "Point",
    "coordinates": [
     37.6317799113,
     55.6953320341
    ]
   }
  }
 ]
}